start=new Date('2022-01-10T00:00:00.000Z').valueOf();
sats=[{"EPHEMERIS_TYPE":"0","MEAN_MOTION":"15.69743406","PERIAPSIS":"357.182","TLE_LINE1":"1 49164U 21082AL  22009.91667824  .00015430  00000-0  13082-3 0  9993","MEAN_ELEMENT_THEORY":"SGP4","INCLINATION":"69.9984","SITE":"AFWTR","ECCENTRICITY":"0.00036380","GP_ID":"193559589","LAUNCH_DATE":"2021-09-14","REV_AT_EPOCH":"367","BSTAR":"0.00013082000000","NORAD_CAT_ID":"49164","ELEMENT_SET_NO":"999","FILE":"3268323","TIME_SYSTEM":"UTC","OBJECT_NAME":"STARLINK-3106","MEAN_MOTION_DDOT":"0.0000000000000","RA_OF_ASC_NODE":"155.7067","EPOCH":"2022-01-09T22:00:00.999936","ARG_OF_PERICENTER":"284.5708","OBJECT_TYPE":"PAYLOAD","APOAPSIS":"362.084","MEAN_ANOMALY":"305.9276","MEAN_MOTION_DOT":"0.00015430","DECAY_DATE":null,"CENTER_NAME":"EARTH","RCS_SIZE":"LARGE","PERIOD":"91.735","OBJECT_ID":"2021-082AL","TLE_LINE2":"2 49164  69.9984 155.7067 0003638 284.5708 305.9276 15.69743406  3679","COUNTRY_CODE":"US","SEMIMAJOR_AXIS":"6737.768","REF_FRAME":"TEME","CLASSIFICATION_TYPE":"U"},{"BSTAR":"0.00150180000000","NORAD_CAT_ID":"49165","REV_AT_EPOCH":"1954","OBJECT_NAME":"STARLINK-3052","MEAN_MOTION_DDOT":"0.0000000000000","RA_OF_ASC_NODE":"166.3523","TIME_SYSTEM":"UTC","FILE":"3268143","ELEMENT_SET_NO":"999","EPHEMERIS_TYPE":"0","MEAN_MOTION":"14.98312506","TLE_LINE1":"1 49165U 21082AM  22009.91667824  .00017864  00000-0  15018-2 0  9997","PERIAPSIS":"569.719","GP_ID":"193532846","LAUNCH_DATE":"2021-09-14","MEAN_ELEMENT_THEORY":"SGP4","SITE":"AFWTR","INCLINATION":"69.9987","ECCENTRICITY":"0.00034430","COUNTRY_CODE":"US","TLE_LINE2":"2 49165  69.9987 166.3523 0003443 276.4146 289.4688 14.98312506 19548","CLASSIFICATION_TYPE":"U","SEMIMAJOR_AXIS":"6950.247","REF_FRAME":"TEME","OBJECT_TYPE":"PAYLOAD","APOAPSIS":"574.505","MEAN_ANOMALY":"289.4688","EPOCH":"2022-01-09T22:00:00.999936","ARG_OF_PERICENTER":"276.4146","CENTER_NAME":"EARTH","RCS_SIZE":"LARGE","PERIOD":"96.108","OBJECT_ID":"2021-082AM","MEAN_MOTION_DOT":"0.00017864","DECAY_DATE":null},{"BSTAR":"-0.00040788000000","NORAD_CAT_ID":"49166","REV_AT_EPOCH":"367","RA_OF_ASC_NODE":"155.7056","MEAN_MOTION_DDOT":"0.0000000000000","OBJECT_NAME":"STARLINK-3089","FILE":"3268323","ELEMENT_SET_NO":"999","TIME_SYSTEM":"UTC","TLE_LINE1":"1 49166U 21082AN  22009.91667824 -.00048729  00000-0 -40788-3 0  9997","PERIAPSIS":"357.025","EPHEMERIS_TYPE":"0","MEAN_MOTION":"15.69801444","LAUNCH_DATE":"2021-09-14","GP_ID":"193561073","ECCENTRICITY":"0.00036250","MEAN_ELEMENT_THEORY":"SGP4","INCLINATION":"69.9978","SITE":"AFWTR","COUNTRY_CODE":"US","TLE_LINE2":"2 49166  69.9978 155.7056 0003625 281.8218 306.5363 15.69801444  3675","CLASSIFICATION_TYPE":"U","SEMIMAJOR_AXIS":"6737.602","REF_FRAME":"TEME","MEAN_ANOMALY":"306.5363","OBJECT_TYPE":"PAYLOAD","APOAPSIS":"361.909","ARG_OF_PERICENTER":"281.8218","EPOCH":"2022-01-09T22:00:00.999936","OBJECT_ID":"2021-082AN","PERIOD":"91.731","RCS_SIZE":"LARGE","CENTER_NAME":"EARTH","DECAY_DATE":null,"MEAN_MOTION_DOT":"-0.00048729"},{"COUNTRY_CODE":"US","TLE_LINE2":"2 49167  69.9983 166.3388 0003119 273.0681 318.4728 14.98323375  3583","CLASSIFICATION_TYPE":"U","SEMIMAJOR_AXIS":"6950.213","REF_FRAME":"TEME","MEAN_ANOMALY":"318.4728","OBJECT_TYPE":"PAYLOAD","APOAPSIS":"574.246","ARG_OF_PERICENTER":"273.0681","EPOCH":"2022-01-09T22:00:00.999936","OBJECT_ID":"2021-082AP","CENTER_NAME":"EARTH","RCS_SIZE":"LARGE","PERIOD":"96.107","DECAY_DATE":null,"MEAN_MOTION_DOT":"0.00016317","BSTAR":"0.00137230000000","NORAD_CAT_ID":"49167","REV_AT_EPOCH":"358","RA_OF_ASC_NODE":"166.3388","MEAN_MOTION_DDOT":"0.0000000000000","OBJECT_NAME":"STARLINK-3054","TIME_SYSTEM":"UTC","FILE":"3268323","ELEMENT_SET_NO":"999","TLE_LINE1":"1 49167U 21082AP  22009.91667824  .00016317  00000-0  13723-2 0  9992","PERIAPSIS":"569.911","EPHEMERIS_TYPE":"0","MEAN_MOTION":"14.98323375","LAUNCH_DATE":"2021-09-14","GP_ID":"193559839","ECCENTRICITY":"0.00031190","MEAN_ELEMENT_THEORY":"SGP4","INCLINATION":"69.9983","SITE":"AFWTR"},{"ARG_OF_PERICENTER":"283.6312","EPOCH":"2022-01-09T22:00:00.999936","MEAN_ANOMALY":"313.2320","APOAPSIS":"361.864","OBJECT_TYPE":"PAYLOAD","MEAN_MOTION_DOT":"-0.00079452","DECAY_DATE":null,"OBJECT_ID":"2021-082AQ","RCS_SIZE":"LARGE","PERIOD":"91.731","CENTER_NAME":"EARTH","TLE_LINE2":"2 49168  69.9998 155.6959 0003616 283.6312 313.2320 15.69815207  3675","COUNTRY_CODE":"US","REF_FRAME":"TEME","SEMIMAJOR_AXIS":"6737.563","CLASSIFICATION_TYPE":"U","PERIAPSIS":"356.991","TLE_LINE1":"1 49168U 21082AQ  22009.91667824 -.00079452  00000-0 -66822-3 0  9993","MEAN_MOTION":"15.69815207","EPHEMERIS_TYPE":"0","ECCENTRICITY":"0.00036160","INCLINATION":"69.9998","SITE":"AFWTR","MEAN_ELEMENT_THEORY":"SGP4","LAUNCH_DATE":"2021-09-14","GP_ID":"193560089","REV_AT_EPOCH":"367","NORAD_CAT_ID":"49168","BSTAR":"-0.00066822000000","FILE":"3268323","ELEMENT_SET_NO":"999","TIME_SYSTEM":"UTC","MEAN_MOTION_DDOT":"0.0000000000000","RA_OF_ASC_NODE":"155.6959","OBJECT_NAME":"STARLINK-3101"},{"REF_FRAME":"TEME","SEMIMAJOR_AXIS":"6737.733","CLASSIFICATION_TYPE":"U","TLE_LINE2":"2 49169  69.9981 155.7008 0003714 279.5845 312.9898 15.69755687  3679","COUNTRY_CODE":"US","MEAN_MOTION_DOT":"0.00023059","DECAY_DATE":null,"CENTER_NAME":"EARTH","RCS_SIZE":"LARGE","PERIOD":"91.734","OBJECT_ID":"2021-082AR","EPOCH":"2022-01-09T22:00:00.999936","ARG_OF_PERICENTER":"279.5845","APOAPSIS":"362.100","OBJECT_TYPE":"PAYLOAD","MEAN_ANOMALY":"312.9898","FILE":"3268323","ELEMENT_SET_NO":"999","TIME_SYSTEM":"UTC","OBJECT_NAME":"STARLINK-3046","RA_OF_ASC_NODE":"155.7008","MEAN_MOTION_DDOT":"0.0000000000000","REV_AT_EPOCH":"367","NORAD_CAT_ID":"49169","BSTAR":"0.00019434000000","INCLINATION":"69.9981","SITE":"AFWTR","MEAN_ELEMENT_THEORY":"SGP4","ECCENTRICITY":"0.00037140","GP_ID":"193560841","LAUNCH_DATE":"2021-09-14","MEAN_MOTION":"15.69755687","EPHEMERIS_TYPE":"0","PERIAPSIS":"357.096","TLE_LINE1":"1 49169U 21082AR  22009.91667824  .00023059  00000-0  19434-3 0  9991"},{"LAUNCH_DATE":"2021-09-14","GP_ID":"193560574","ECCENTRICITY":"0.00033350","MEAN_ELEMENT_THEORY":"SGP4","INCLINATION":"69.9997","SITE":"AFWTR","TLE_LINE1":"1 49170U 21082AS  22009.91667824  .00015280  00000-0  12854-2 0  9998","PERIAPSIS":"569.727","EPHEMERIS_TYPE":"0","MEAN_MOTION":"14.98334271","MEAN_MOTION_DDOT":"0.0000000000000","RA_OF_ASC_NODE":"166.3391","OBJECT_NAME":"STARLINK-3074","TIME_SYSTEM":"UTC","FILE":"3268323","ELEMENT_SET_NO":"999","BSTAR":"0.00128540000000","NORAD_CAT_ID":"49170","REV_AT_EPOCH":"357","OBJECT_ID":"2021-082AS","CENTER_NAME":"EARTH","RCS_SIZE":"LARGE","PERIOD":"96.107","MEAN_MOTION_DOT":"0.00015280","DECAY_DATE":null,"MEAN_ANOMALY":"95.7734","OBJECT_TYPE":"PAYLOAD","APOAPSIS":"574.363","ARG_OF_PERICENTER":"275.3592","EPOCH":"2022-01-09T22:00:00.999936","CLASSIFICATION_TYPE":"U","SEMIMAJOR_AXIS":"6950.180","REF_FRAME":"TEME","COUNTRY_CODE":"US","TLE_LINE2":"2 49170  69.9997 166.3391 0003335 275.3592  95.7734 14.98334271  3570"},{"ELEMENT_SET_NO":"999","FILE":"3268323","TIME_SYSTEM":"UTC","OBJECT_NAME":"STARLINK-3107","MEAN_MOTION_DDOT":"0.0000000000000","RA_OF_ASC_NODE":"166.3409","REV_AT_EPOCH":"358","NORAD_CAT_ID":"49171","BSTAR":"0.00120780000000","INCLINATION":"70.0000","SITE":"AFWTR","MEAN_ELEMENT_THEORY":"SGP4","ECCENTRICITY":"0.00032630","GP_ID":"193559340","LAUNCH_DATE":"2021-09-14","MEAN_MOTION":"14.98325449","EPHEMERIS_TYPE":"0","PERIAPSIS":"569.804","TLE_LINE1":"1 49171U 21082AT  22009.91667824  .00014346  00000-0  12078-2 0  9999","REF_FRAME":"TEME","SEMIMAJOR_AXIS":"6950.207","CLASSIFICATION_TYPE":"U","TLE_LINE2":"2 49171  70.0000 166.3409 0003263 274.6766 353.5150 14.98325449  3589","COUNTRY_CODE":"US","DECAY_DATE":null,"MEAN_MOTION_DOT":"0.00014346","CENTER_NAME":"EARTH","RCS_SIZE":"LARGE","PERIOD":"96.107","OBJECT_ID":"2021-082AT","EPOCH":"2022-01-09T22:00:00.999936","ARG_OF_PERICENTER":"274.6766","APOAPSIS":"574.340","OBJECT_TYPE":"PAYLOAD","MEAN_ANOMALY":"353.5150"},{"LAUNCH_DATE":"2021-09-14","GP_ID":"193559590","ECCENTRICITY":"0.00036650","MEAN_ELEMENT_THEORY":"SGP4","INCLINATION":"69.9981","SITE":"AFWTR","PERIAPSIS":"357.141","TLE_LINE1":"1 49172U 21082AU  22009.91667824  .00022208  00000-0  18729-3 0  9996","EPHEMERIS_TYPE":"0","MEAN_MOTION":"15.69751486","RA_OF_ASC_NODE":"155.6863","MEAN_MOTION_DDOT":"0.0000000000000","OBJECT_NAME":"STARLINK-3091","FILE":"3268323","TIME_SYSTEM":"UTC","ELEMENT_SET_NO":"999","BSTAR":"0.00018729000000","NORAD_CAT_ID":"49172","REV_AT_EPOCH":"367","OBJECT_ID":"2021-082AU","CENTER_NAME":"EARTH","RCS_SIZE":"LARGE","PERIOD":"91.734","DECAY_DATE":null,"MEAN_MOTION_DOT":"0.00022208","MEAN_ANOMALY":"322.4225","OBJECT_TYPE":"PAYLOAD","APOAPSIS":"362.079","ARG_OF_PERICENTER":"282.9132","EPOCH":"2022-01-09T22:00:00.999936","CLASSIFICATION_TYPE":"U","SEMIMAJOR_AXIS":"6737.745","REF_FRAME":"TEME","COUNTRY_CODE":"US","TLE_LINE2":"2 49172  69.9981 155.6863 0003665 282.9132 322.4225 15.69751486  3676"},{"APOAPSIS":"361.974","OBJECT_TYPE":"PAYLOAD","MEAN_ANOMALY":"235.7971","EPOCH":"2022-01-09T22:00:00.999936","ARG_OF_PERICENTER":"275.9931","PERIOD":"91.733","RCS_SIZE":"LARGE","CENTER_NAME":"EARTH","OBJECT_ID":"2021-082AV","MEAN_MOTION_DOT":"0.00020590","DECAY_DATE":null,"COUNTRY_CODE":"US","TLE_LINE2":"2 49173  70.0002 155.3785 0003580 275.9931 235.7971 15.69768395  3681","CLASSIFICATION_TYPE":"U","REF_FRAME":"TEME","SEMIMAJOR_AXIS":"6737.697","MEAN_MOTION":"15.69768395","EPHEMERIS_TYPE":"0","PERIAPSIS":"357.150","TLE_LINE1":"1 49173U 21082AV  22009.91667824  .00020590  00000-0  17369-3 0  9998","GP_ID":"193560342","LAUNCH_DATE":"2021-09-14","SITE":"AFWTR","INCLINATION":"70.0002","MEAN_ELEMENT_THEORY":"SGP4","ECCENTRICITY":"0.00035800","NORAD_CAT_ID":"49173","BSTAR":"0.00017369000000","REV_AT_EPOCH":"368","OBJECT_NAME":"STARLINK-3045","RA_OF_ASC_NODE":"155.3785","MEAN_MOTION_DDOT":"0.0000000000000","FILE":"3268323","TIME_SYSTEM":"UTC","ELEMENT_SET_NO":"999"}];
